[{"OBJECT_NAME":"KINEIS-3E","OBJECT_ID":"2024-172C","EPOCH":"2026-03-09T18:10:24.014496","MEAN_MOTION":14.72309398,"ECCENTRICITY":0.0001612,"INCLINATION":98.0288,"RA_OF_ASC_NODE":159.764,"ARG_OF_PERICENTER":104.7696,"MEAN_ANOMALY":255.369,"EPHEMERIS_TYPE":0,"CLASSIFICATION_TYPE":"U","NORAD_CAT_ID":61222,"ELEMENT_SET_NO":999,"REV_AT_EPOCH":7872,"BSTAR":0.00046314644,"MEAN_MOTION_DOT":2.879e-5,"MEAN_MOTION_DDOT":0},{"OBJECT_NAME":"FENGYUN 1C DEB","OBJECT_ID":"1999-025BFJ","EPOCH":"2026-03-09T10:40:58.620288","MEAN_MOTION":14.22304129,"ECCENTRICITY":0.02419639,"INCLINATION":98.5854,"RA_OF_ASC_NODE":53.8919,"ARG_OF_PERICENTER":109.2929,"MEAN_ANOMALY":40.592,"EPHEMERIS_TYPE":0,"CLASSIFICATION_TYPE":"U","NORAD_CAT_ID":31064,"ELEMENT_SET_NO":999,"REV_AT_EPOCH":98487,"BSTAR":0.00026521758,"MEAN_MOTION_DOT":7.49e-6,"MEAN_MOTION_DDOT":0}]
